NORAD_CAT_ID,OBJECT_NAME,OBJECT_TYPE,EPOCH,MEAN_MOTION,ECCENTRICITY,INCLINATION,RA_OF_ASC_NODE,ARG_OF_PERICENTER,MEAN_ANOMALY,BSTAR,MEAN_MOTION_DOT,MEAN_MOTION_DDOT,TLE_LINE0,TLE_LINE1,TLE_LINE2,SEMIMAJOR_AXIS,PERIOD,APOGEE,PERIGEE,DECAYED
53629.0,STARLINK-4602,PAYLOAD,2023-11-23 10:37:06,15.08838809,0.0001611,53.2194,32.3532,72.3517,287.7651,3.7592e-05,3.1e-06,0.0,0 STARLINK-4602,1 53629U 22104AT  23327.44244123  .00000310  00000-0  37592-4 0  9999,2 53629  53.2194  32.3532 0001611  72.3517 287.7651 15.08838809 68676,6917.884,95.438,540.864,538.635,0.0
53629.0,STARLINK-4602,PAYLOAD,2023-11-23 12:12:29,15.08841049,0.0001674,53.2193,32.0556,80.9051,279.2131,6.5527e-05,7.55e-06,0.0,0 STARLINK-4602,1 53629U 22104AT  23327.50867898  .00000755  00000-0  65527-4 0  9998,2 53629  53.2193  32.0556 0001674  80.9051 279.2131 15.08841049 69372,6917.877,95.437,540.9,538.584,0.0
53629.0,STARLINK-4602,PAYLOAD,2023-11-24 04:06:22,15.08834504,0.0001707,53.2199,29.0812,72.4574,287.6604,-0.00010985,-2.036e-05,0.0,0 STARLINK-4602,1 53629U 22104AT  23328.17109129 -.00002036  00000-0 -10985-3 0  9991,2 53629  53.2199  29.0812 0001707  72.4574 287.6604 15.08834504 68782,6917.897,95.438,540.943,538.581,0.0
53629.0,STARLINK-4602,PAYLOAD,2023-11-24 10:27:54,15.08838173,0.000167,53.2193,27.894,74.8217,285.296,-0.00011106,-2.055e-05,0.0,0 STARLINK-4602,1 53629U 22104AT  23328.43604963 -.00002055  00000-0 -11106-3 0  9993,2 53629  53.2193  27.8940 0001670  74.8217 285.2960 15.08838173 69510,6917.886,95.438,540.906,538.596,0.0
53629.0,STARLINK-4602,PAYLOAD,2023-11-25 10:18:40,15.08858065,0.0001658,53.2189,23.4327,100.0405,260.0774,0.0003881,5.897e-05,0.0,0 STARLINK-4602,1 53629U 22104AT  23329.42963840  .00005897  00000-0  38810-3 0  9991,2 53629  53.2189  23.4327 0001658 100.0405 260.0774 15.08858065 69665,6917.825,95.436,540.837,538.543,0.0
53629.0,STARLINK-4602,PAYLOAD,2023-11-26 03:47:55,15.08853992,0.000187,53.2195,20.1641,95.4457,264.6748,0.00037037,5.614e-05,0.0,0 STARLINK-4602,1 53629U 22104AT  23330.15827858  .00005614  00000-0  37037-3 0  9998,2 53629  53.2195  20.1641 0001870  95.4457 264.6748 15.08853992 69086,6917.838,95.437,540.996,538.409,0.0
53629.0,STARLINK-4602,PAYLOAD,2023-11-26 10:09:27,15.08856823,0.00018,53.219,18.973,97.6668,262.4528,0.00031341,4.706e-05,0.0,0 STARLINK-4602,1 53629U 22104AT  23330.42323457  .00004706  00000-0  31341-3 0  9997,2 53629  53.2190  18.9730 0001800  97.6668 262.4528 15.08856823 69815,6917.829,95.436,540.939,538.449,0.0
53629.0,STARLINK-4602,PAYLOAD,2023-11-27 10:00:16,15.0884398,0.0001854,53.2195,14.5152,107.4367,252.6828,3.8362e-06,-2.27e-06,0.0,0 STARLINK-4602,1 53629U 22104AT  23331.41685614 -.00000227  00000-0  38362-5 0  9990,2 53629  53.2195  14.5152 0001854 107.4367 252.6828 15.08843980 69279,6917.868,95.437,541.016,538.451,0.0
53629.0,STARLINK-4602,PAYLOAD,2023-11-28 09:51:02,15.08857813,0.0001778,53.2185,10.0495,96.2267,263.8928,0.00034823,5.261e-05,0.0,0 STARLINK-4602,1 53629U 22104AT  23332.41044916  .00005261  00000-0  34823-3 0  9993,2 53629  53.2185  10.0495 0001778  96.2267 263.8928 15.08857813 70118,6917.826,95.436,540.921,538.461,0.0
53629.0,STARLINK-4602,PAYLOAD,2023-11-29 11:17:13,15.08854798,0.0001734,53.2183,5.2956,98.5178,261.6011,0.00014813,2.071e-05,0.0,0 STARLINK-4602,1 53629U 22104AT  23333.47029032  .00002071  00000-0  14813-3 0  9995,2 53629  53.2183   5.2956 0001734  98.5178 261.6011 15.08854798 69589,6917.835,95.437,540.9,538.501,0.0
53629.0,STARLINK-4602,PAYLOAD,2023-11-30 01:35:41,15.08848909,0.0001865,53.219,2.6227,101.2317,258.8885,1.6853e-05,-2e-07,0.0,0 STARLINK-4602,1 53629U 22104AT  23334.06644841 -.00000020  00000-0  16853-4 0  9992,2 53629  53.2190   2.6227 0001865 101.2317 258.8885 15.08848909 69675,6917.853,95.437,541.008,538.428,0.0
53629.0,STARLINK-4602,PAYLOAD,2023-12-01 01:26:28,15.08839633,0.000182,53.2174,358.1568,81.0236,279.0962,9.2452e-05,1.184e-05,0.0,0 STARLINK-4602,1 53629U 22104AT  23335.06005559  .00001184  00000-0  92452-4 0  9990,2 53629  53.2174 358.1568 0001820  81.0236 279.0962 15.08839633 69822,6917.882,95.438,541.006,538.487,0.0
53629.0,STARLINK-4602,PAYLOAD,2023-12-01 09:23:24,15.08847247,0.00018,53.2184,356.6711,85.8543,274.2655,0.00016644,2.362e-05,0.0,0 STARLINK-4602,1 53629U 22104AT  23335.39125458  .00002362  00000-0  16644-3 0  9994,2 53629  53.2184 356.6711 0001800  85.8543 274.2655 15.08847247 70566,6917.858,95.437,540.968,538.478,0.0
53629.0,STARLINK-4602,PAYLOAD,2023-12-02 01:17:15,15.08853407,0.0001623,53.2183,353.6968,77.0293,283.0881,0.00029688,4.442e-05,0.0,0 STARLINK-4602,1 53629U 22104AT  23336.05364887  .00004442  00000-0  29688-3 0  9992,2 53629  53.2183 353.6968 0001623  77.0293 283.0881 15.08853407 69971,6917.839,95.437,540.827,538.582,0.0
53629.0,STARLINK-4602,PAYLOAD,2023-12-02 07:38:47,15.0886874,0.0002096,53.2174,352.5102,67.0598,293.0615,0.00062825,9.733e-05,0.0,0 STARLINK-4602,1 53629U 22104AT  23336.31860341  .00009733  00000-0  62825-3 0  9995,2 53629  53.2174 352.5102 0002096  67.0598 293.0615 15.08868740 70010,6917.793,95.436,541.108,538.208,0.0
53629.0,STARLINK-4602,PAYLOAD,2023-12-03 04:18:50,15.08806055,0.0001542,53.2187,348.644,79.0512,281.0654,-0.00062542,-0.00010218,0.0,0 STARLINK-4602,1 53629U 22104AT  23337.17974558 -.00010218  00000-0 -62542-3 0  9994,2 53629  53.2187 348.6440 0001542  79.0512 281.0654 15.08806055 70144,6917.984,95.44,540.916,538.782,0.0
53629.0,STARLINK-4602,PAYLOAD,2023-12-03 07:29:36,15.08803163,0.0001781,53.2181,348.0473,101.4895,258.6297,-0.00083367,-0.00013518,0.0,0 STARLINK-4602,1 53629U 22104AT  23337.31222236 -.00013518  00000-0 -83367-3 0  9993,2 53629  53.2181 348.0473 0001781 101.4895 258.6297 15.08803163 70855,6917.993,95.44,541.09,538.626,0.0
53629.0,STARLINK-4602,PAYLOAD,2023-12-03 13:51:09,15.08807928,0.0001768,53.2187,346.8589,98.6064,261.5128,-0.00031762,-5.335e-05,0.0,0 STARLINK-4602,1 53629U 22104AT  23337.57718846 -.00005335  00000-0 -31762-3 0  9998,2 53629  53.2187 346.8589 0001768  98.6064 261.5128 15.08807928 70203,6917.978,95.44,541.067,538.62,0.0
53629.0,STARLINK-4602,PAYLOAD,2023-12-04 04:09:37,15.08823108,0.0001886,53.217,344.1826,106.2636,253.8564,0.00065529,0.00010152,0.0,0 STARLINK-4602,1 53629U 22104AT  23338.17335630  .00010152  00000-0  65529-3 0  9990,2 53629  53.2170 344.1826 0001886 106.2636 253.8564 15.08823108 70297,6917.932,95.439,541.102,538.492,0.0
53629.0,STARLINK-4602,PAYLOAD,2023-12-04 10:31:10,15.08834372,0.0001929,53.2181,342.9878,104.6213,255.4993,0.0011925,0.00018739,0.0,0 STARLINK-4602,1 53629U 22104AT  23338.43831761  .00018739  00000-0  11925-2 0  9994,2 53629  53.2181 342.9878 0001929 104.6213 255.4993 15.08834372 71024,6917.898,95.438,541.097,538.428,0.0
53629.0,STARLINK-4602,PAYLOAD,2023-12-05 04:00:24,15.08859587,0.0001857,53.2177,339.7166,109.9185,250.2007,0.00065853,0.00010214,0.0,0 STARLINK-4602,1 53629U 22104AT  23339.16694822  .00010214  00000-0  65853-3 0  9990,2 53629  53.2177 339.7166 0001857 109.9185 250.2007 15.08859587 70448,6917.821,95.436,540.97,538.401,0.0
53629.0,STARLINK-4602,PAYLOAD,2023-12-05 07:11:10,15.08864874,0.0001882,53.2179,339.1222,106.9195,253.2004,0.00064549,0.00010007,0.0,0 STARLINK-4602,1 53629U 22104AT  23339.29942527  .00010007  00000-0  64549-3 0  9993,2 53629  53.2179 339.1222 0001882 106.9195 253.2004 15.08864874 71157,6917.804,95.436,540.971,538.367,0.0
53629.0,STARLINK-4602,PAYLOAD,2023-12-06 03:51:10,15.08856852,0.000195,53.2183,335.2561,110.0192,250.101,0.00017969,2.574e-05,0.0,0 STARLINK-4602,1 53629U 22104AT  23340.16053914  .00002574  00000-0  17969-3 0  9998,2 53629  53.2183 335.2561 0001950 110.0192 250.1010 15.08856852 70591,6917.829,95.436,541.043,538.345,0.0
53629.0,STARLINK-4602,PAYLOAD,2023-12-06 10:12:43,15.08852933,0.0001771,53.2183,334.068,97.8664,262.2529,8.2168e-05,1.02e-05,0.0,0 STARLINK-4602,1 53629U 22104AT  23340.42549912  .00001020  00000-0  82168-4 0  9994,2 53629  53.2183 334.0680 0001771  97.8664 262.2529 15.08852933 71324,6917.841,95.437,540.931,538.481,0.0
53629.0,STARLINK-4602,PAYLOAD,2023-12-06 22:55:48,15.08837826,0.0001942,53.2179,331.6881,107.9801,252.1403,-0.00015563,-2.764e-05,0.0,0 STARLINK-4602,1 53629U 22104AT  23340.95542128 -.00002764  00000-0 -15563-3 0  9996,2 53629  53.2179 331.6881 0001942 107.9801 252.1403 15.08837826 71403,6917.887,95.438,541.095,538.409,0.0
53629.0,STARLINK-4602,PAYLOAD,2023-12-07 03:41:57,15.08837631,0.0002133,53.2182,330.7966,93.9927,266.1309,-8.0911e-05,-1.576e-05,0.0,0 STARLINK-4602,1 53629U 22104AT  23341.15414250 -.00001576  00000-0 -80911-4 0  9993,2 53629  53.2182 330.7966 0002133  93.9927 266.1309 15.08837631 70747,6917.888,95.438,541.228,538.277,0.0
53629.0,STARLINK-4602,PAYLOAD,2023-12-07 08:28:07,15.08838111,0.0001851,53.2176,329.9048,110.53,249.5891,-8.6638e-05,-1.667e-05,0.0,0 STARLINK-4602,1 53629U 22104AT  23341.35286212 -.00001667  00000-0 -86638-4 0  9993,2 53629  53.2176 329.9048 0001851 110.5300 249.5891 15.08838111 71463,6917.886,95.438,541.032,538.471,0.0
53629.0,STARLINK-4602,PAYLOAD,2023-12-08 08:18:54,15.08846214,0.0001614,53.2167,325.4437,98.896,261.2215,0.00023548,3.462e-05,0.0,0 STARLINK-4602,1 53629U 22104AT  23342.34646262  .00003462  00000-0  23548-3 0  9991,2 53629  53.2167 325.4437 0001614  98.8960 261.2215 15.08846214 70927,6917.861,95.437,540.843,538.61,0.0
53629.0,STARLINK-4602,PAYLOAD,2023-12-09 06:34:18,15.08845468,0.0001875,53.2179,321.2759,77.9385,282.1818,0.00060087,9.289e-05,0.0,0 STARLINK-4602,1 53629U 22104AT  23343.27382526  .00009289  00000-0  60087-3 0  9996,2 53629  53.2179 321.2759 0001875  77.9385 282.1818 15.08845468 71066,6917.864,95.437,541.026,538.432,0.0
53629.0,STARLINK-4602,PAYLOAD,2023-12-09 22:28:09,15.0884013,0.0001597,53.217,318.3059,98.1305,261.9868,-1.3479e-05,-5.03e-06,0.0,0 STARLINK-4602,1 53629U 22104AT  23343.93622301 -.00000503  00000-0 -13479-4 0  9993,2 53629  53.2170 318.3059 0001597  98.1305 261.9868 15.08840130 71853,6917.88,95.438,540.85,538.64,0.0
